NORAD_CAT_ID,OBJECT_NAME,OBJECT_TYPE,EPOCH,MEAN_MOTION,ECCENTRICITY,INCLINATION,RA_OF_ASC_NODE,ARG_OF_PERICENTER,MEAN_ANOMALY,BSTAR,MEAN_MOTION_DOT,MEAN_MOTION_DDOT,TLE_LINE0,TLE_LINE1,TLE_LINE2,SEMIMAJOR_AXIS,PERIOD,APOGEE,PERIGEE,DECAYED
54003.0,STARLINK-5114,PAYLOAD,2023-09-24 01:25:07,15.08839086,0.0001542,53.2158,283.5407,96.3541,263.7627,0.00014998,2.1e-05,0.0,0 STARLINK-5114,1 54003U 22125AR  23267.05911335  .00002100  00000-0  14998-3 0  9998,2 54003  53.2158 283.5407 0001542  96.3541 263.7627 15.08839086 54007,6917.883,95.438,540.815,538.681,0.0
54003.0,STARLINK-5114,PAYLOAD,2023-09-24 07:46:39,15.08845436,0.000152,53.2167,282.3506,97.6393,262.4772,1.5527e-05,-4.1e-07,0.0,0 STARLINK-5114,1 54003U 22125AR  23267.32407043 -.00000041  00000-0  15527-4 0  9997,2 54003  53.2167 282.3506 0001520  97.6393 262.4772 15.08845436 53999,6917.864,95.437,540.78,538.677,0.0
54003.0,STARLINK-5114,PAYLOAD,2023-09-25 07:37:26,15.08834911,0.0001637,53.2176,277.8916,106.4092,253.708,0.00025855,3.829e-05,0.0,0 STARLINK-5114,1 54003U 22125AR  23268.31767227  .00003829  00000-0  25855-3 0  9990,2 54003  53.2176 277.8916 0001637 106.4092 253.7080 15.08834911 54191,6917.896,95.438,540.893,538.628,0.0
54003.0,STARLINK-5114,PAYLOAD,2023-09-25 10:48:12,15.08846158,0.0001498,53.2171,277.2958,98.51,261.6061,0.0001038,1.365e-05,0.0,0 STARLINK-5114,1 54003U 22125AR  23268.45014757  .00001365  00000-0  10380-3 0  9998,2 54003  53.2171 277.2958 0001498  98.5100 261.6061 15.08846158 54162,6917.862,95.437,540.763,538.69,0.0
54003.0,STARLINK-5114,PAYLOAD,2023-09-25 17:09:45,15.08845226,0.0001525,53.217,276.106,97.7949,262.3217,0.00011739,1.581e-05,0.0,0 STARLINK-5114,1 54003U 22125AR  23268.71510771  .00001581  00000-0  11739-3 0  9993,2 54003  53.2170 276.1060 0001525  97.7949 262.3217 15.08845226 54207,6917.864,95.437,540.784,538.674,0.0
54003.0,STARLINK-5114,PAYLOAD,2023-09-26 07:28:13,15.08849968,0.0001499,53.2164,273.431,98.8825,261.2337,0.00016653,2.364e-05,0.0,0 STARLINK-5114,1 54003U 22125AR  23269.31126540  .00002364  00000-0  16653-3 0  9997,2 54003  53.2164 273.4310 0001499  98.8825 261.2337 15.08849968 54346,6917.85,95.437,540.752,538.678,0.0
54003.0,STARLINK-5114,PAYLOAD,2023-09-27 07:19:01,15.08834039,0.0001425,53.2161,268.9698,107.6082,252.5066,-8.1784e-05,-1.589e-05,0.0,0 STARLINK-5114,1 54003U 22125AR  23270.30487423 -.00001589  00000-0 -81784-4 0  9996,2 54003  53.2161 268.9698 0001425 107.6082 252.5066 15.08834039 54495,6917.899,95.438,540.749,538.778,0.0
54003.0,STARLINK-5114,PAYLOAD,2023-09-28 08:45:11,15.08839524,0.0001337,53.2172,264.2108,100.0425,260.0718,5.2015e-05,5.4e-06,0.0,0 STARLINK-5114,1 54003U 22125AR  23271.36471846  .00000540  00000-0  52015-4 0  9994,2 54003  53.2172 264.2108 0001337 100.0425 260.0718 15.08839524 54652,6917.882,95.438,540.672,538.822,0.0
54003.0,STARLINK-5114,PAYLOAD,2023-09-29 11:46:44,15.08846686,0.0001274,53.216,259.1551,97.2678,262.8459,0.00028865,4.31e-05,0.0,0 STARLINK-5114,1 54003U 22125AR  23272.49079709  .00004310  00000-0  28865-3 0  9995,2 54003  53.2160 259.1551 0001274  97.2678 262.8459 15.08846686 54773,6917.86,95.437,540.606,538.844,0.0
54003.0,STARLINK-5114,PAYLOAD,2023-09-30 03:40:36,15.08844771,0.0001361,53.2159,256.1796,86.0175,274.0972,0.00013966,1.936e-05,0.0,0 STARLINK-5114,1 54003U 22125AR  23273.15319878  .00001936  00000-0  13966-3 0  9990,2 54003  53.2159 256.1796 0001361  86.0175 274.0972 15.08844771 54929,6917.866,95.437,540.672,538.789,0.0
54003.0,STARLINK-5114,PAYLOAD,2023-09-30 05:15:59,15.0884638,0.000144,53.216,255.8823,81.8705,278.245,0.00016131,2.281e-05,0.0,0 STARLINK-5114,1 54003U 22125AR  23273.21943819  .00002281  00000-0  16131-3 0  9996,2 54003  53.2160 255.8823 0001440  81.8705 278.2450 15.08846380 54888,6917.861,95.437,540.722,538.73,0.0
54003.0,STARLINK-5114,PAYLOAD,2023-10-01 01:56:00,15.08839838,0.0001615,53.2168,252.0128,102.8384,257.2788,-8.1363e-06,-4.18e-06,0.0,0 STARLINK-5114,1 54003U 22125AR  23274.08055940 -.00000418  00000-0 -81363-5 0  9994,2 54003  53.2168 252.0128 0001615 102.8384 257.2788 15.08839838 55066,6917.881,95.438,540.863,538.629,0.0
54003.0,STARLINK-5114,PAYLOAD,2023-10-01 05:06:46,15.08842251,0.0001629,53.2167,251.4212,87.9703,272.1476,6.055e-05,6.76e-06,0.0,0 STARLINK-5114,1 54003U 22125AR  23274.21304138  .00000676  00000-0  60550-4 0  9993,2 54003  53.2167 251.4212 0001629  87.9703 272.1476 15.08842251 55035,6917.874,95.437,540.865,538.612,0.0
54003.0,STARLINK-5114,PAYLOAD,2023-10-02 08:08:19,15.08846695,0.0001654,53.217,246.3665,104.9043,255.2132,8.3417e-05,1.04e-05,0.0,0 STARLINK-5114,1 54003U 22125AR  23275.33911953  .00001040  00000-0  83417-4 0  9999,2 54003  53.2170 246.3665 0001654 104.9043 255.2132 15.08846695 55250,6917.86,95.437,540.869,538.581,0.0
54003.0,STARLINK-5114,PAYLOAD,2023-10-03 04:48:20,15.08844546,0.0001389,53.2162,242.5019,94.04,266.0751,0.00020454,2.969e-05,0.0,0 STARLINK-5114,1 54003U 22125AR  23276.20024216  .00002969  00000-0  20454-3 0  9995,2 54003  53.2162 242.5019 0001389  94.0400 266.0751 15.08844546 55387,6917.866,95.437,540.692,538.771,0.0
54003.0,STARLINK-5114,PAYLOAD,2023-10-03 14:20:39,15.08844131,0.0001269,53.2158,240.7177,92.9772,267.1366,0.00015639,2.202e-05,0.0,0 STARLINK-5114,1 54003U 22125AR  23276.59768225  .00002202  00000-0  15639-3 0  9991,2 54003  53.2158 240.7177 0001269  92.9772 267.1366 15.08844131 55398,6917.868,95.437,540.611,538.855,0.0
54003.0,STARLINK-5114,PAYLOAD,2023-10-04 04:39:08,15.0884074,0.000164,53.2162,238.0425,97.7908,262.327,2.5784e-05,1.22e-06,0.0,0 STARLINK-5114,1 54003U 22125AR  23277.19384420  .00000122  00000-0  25784-4 0  9991,2 54003  53.2162 238.0425 0001640  97.7908 262.3270 15.08840740 55535,6917.878,95.438,540.878,538.609,0.0
54003.0,STARLINK-5114,PAYLOAD,2023-10-04 06:14:31,15.0883922,0.0001596,53.2164,237.745,97.5313,262.586,5.9057e-06,-1.94e-06,0.0,0 STARLINK-5114,1 54003U 22125AR  23277.26008491 -.00000194  00000-0  59057-5 0  9991,2 54003  53.2164 237.7450 0001596  97.5313 262.5860 15.08839220 55492,6917.883,95.438,540.852,538.644,0.0
54003.0,STARLINK-5114,PAYLOAD,2023-10-04 14:11:27,15.08840364,0.0001668,53.2164,236.2583,88.8848,271.2335,5.3581e-05,5.65e-06,0.0,0 STARLINK-5114,1 54003U 22125AR  23277.59128555  .00000565  00000-0  53581-4 0  9997,2 54003  53.2164 236.2583 0001668  88.8848 271.2335 15.08840364 55540,6917.879,95.438,540.898,538.59,0.0
54003.0,STARLINK-5114,PAYLOAD,2023-10-05 06:05:17,15.08854695,0.0001353,53.217,233.2843,83.5886,276.5261,0.00020533,2.983e-05,0.0,0 STARLINK-5114,1 54003U 22125AR  23278.25367562  .00002983  00000-0  20533-3 0  9990,2 54003  53.2170 233.2843 0001353  83.5886 276.5261 15.08854695 55692,6917.835,95.437,540.636,538.764,0.0
54003.0,STARLINK-5114,PAYLOAD,2023-10-05 14:02:13,15.08841158,0.0001418,53.2174,231.7973,87.5325,272.5829,4.9307e-05,4.97e-06,0.0,0 STARLINK-5114,1 54003U 22125AR  23278.58488357  .00000497  00000-0  49307-4 0  9991,2 54003  53.2174 231.7973 0001418  87.5325 272.5829 15.08841158 55693,6917.877,95.437,540.723,538.761,0.0
54003.0,STARLINK-5114,PAYLOAD,2023-10-06 13:53:01,15.0883218,0.0002093,53.2177,227.339,81.2699,278.8531,-5.8622e-05,-1.221e-05,0.0,0 STARLINK-5114,1 54003U 22125AR  23279.57849292 -.00001221  00000-0 -58622-4 0  9998,2 54003  53.2177 227.3390 0002093  81.2699 278.8531 15.08832180 55846,6917.904,95.438,541.217,538.321,0.0
54003.0,STARLINK-5114,PAYLOAD,2023-10-07 05:46:52,15.08847108,0.0001564,53.217,224.3635,86.9735,273.1436,7.3021e-05,8.75e-06,0.0,0 STARLINK-5114,1 54003U 22125AR  23280.24088608  .00000875  00000-0  73021-4 0  9992,2 54003  53.2170 224.3635 0001564  86.9735 273.1436 15.08847108 55997,6917.859,95.437,540.806,538.642,0.0
54003.0,STARLINK-5114,PAYLOAD,2023-10-07 13:43:48,15.08842941,0.0001666,53.2174,222.8778,89.0797,271.0386,5.1516e-05,5.32e-06,0.0,0 STARLINK-5114,1 54003U 22125AR  23280.57208909  .00000532  00000-0  51516-4 0  9991,2 54003  53.2174 222.8778 0001666  89.0797 271.0386 15.08842941 55998,6917.871,95.437,540.889,538.584,0.0
54003.0,STARLINK-5114,PAYLOAD,2023-10-08 13:34:35,15.08838787,0.0001804,53.2175,218.4173,95.4487,264.6711,8.0878e-06,-1.59e-06,0.0,0 STARLINK-5114,1 54003U 22125AR  23281.56569225 -.00000159  00000-0  80878-5 0  9992,2 54003  53.2175 218.4173 0001804  95.4487 264.6711 15.08838787 56141,6917.884,95.438,540.997,538.501,0.0
54003.0,STARLINK-5114,PAYLOAD,2023-10-08 19:56:08,15.08837848,0.0001229,53.217,217.2289,90.6438,269.4695,0.00019989,2.895e-05,0.0,0 STARLINK-5114,1 54003U 22125AR  23281.83065230  .00002895  00000-0  19989-3 0  9990,2 54003  53.2170 217.2289 0001229  90.6438 269.4695 15.08837848 56180,6917.887,95.438,540.602,538.902,0.0
54003.0,STARLINK-5114,PAYLOAD,2023-10-09 02:17:40,15.08853485,0.000139,53.2158,216.0384,97.865,262.25,0.00038477,5.843e-05,0.0,0 STARLINK-5114,1 54003U 22125AR  23282.09560514  .00005843  00000-0  38477-3 0  9993,2 54003  53.2158 216.0384 0001390  97.8650 262.2500 15.08853485 56274,6917.839,95.437,540.666,538.743,0.0
54003.0,STARLINK-5114,PAYLOAD,2023-10-09 05:28:26,15.08859514,0.0001571,53.2167,215.4418,100.4049,259.712,0.00039996,6.086e-05,0.0,0 STARLINK-5114,1 54003U 22125AR  23282.22808127  .00006086  00000-0  39996-3 0  9990,2 54003  53.2167 215.4418 0001571 100.4049 259.7120 15.08859514 56244,6917.821,95.436,540.773,538.599,0.0
54003.0,STARLINK-5114,PAYLOAD,2023-10-09 19:46:55,15.08841713,0.0002211,53.2173,212.7639,102.02,258.104,4.2028e-05,3.81e-06,0.0,0 STARLINK-5114,1 54003U 22125AR  23282.82425014  .00000381  00000-0  42028-4 0  9999,2 54003  53.2173 212.7639 0002211 102.0200 258.1040 15.08841713 56331,6917.875,95.437,541.27,538.211,0.0
54003.0,STARLINK-5114,PAYLOAD,2023-10-10 00:33:04,15.08845227,0.0001779,53.2171,211.8725,114.0766,246.0412,0.00019334,2.791e-05,0.0,0 STARLINK-5114,1 54003U 22125AR  23283.02296809  .00002791  00000-0  19334-3 0  9990,2 54003  53.2171 211.8725 0001779 114.0766 246.0412 15.08845227 56415,6917.864,95.437,540.96,538.499,0.0
